RISAT-2BR2              
1 46905U 20081A   26068.52426450  .00004901  00000+0  37609-3 0  9996
2 46905  36.8980  95.9121 0010905  52.9142 307.2595 15.01602463292489
STARLINK-5622           
1 55358U 23013AD  26068.03226234 -.00000759  00000+0 -41090-4 0  9999
2 55358  43.0042 303.6370 0001303 263.0117  97.0577 15.02533237171612
