[{"OBJECT_NAME":"RISAT-2BR2","OBJECT_ID":"2020-081A","EPOCH":"2026-03-09T12:34:56.452800","MEAN_MOTION":15.01602463,"ECCENTRICITY":0.00109054,"INCLINATION":36.898,"RA_OF_ASC_NODE":95.9121,"ARG_OF_PERICENTER":52.9142,"MEAN_ANOMALY":307.2595,"EPHEMERIS_TYPE":0,"CLASSIFICATION_TYPE":"U","NORAD_CAT_ID":46905,"ELEMENT_SET_NO":999,"REV_AT_EPOCH":29248,"BSTAR":0.00037609291,"MEAN_MOTION_DOT":4.901e-5,"MEAN_MOTION_DDOT":0},{"OBJECT_NAME":"STARLINK-5622","OBJECT_ID":"2023-013AD","EPOCH":"2026-03-09T00:46:27.466176","MEAN_MOTION":15.02533237,"ECCENTRICITY":0.00013033,"INCLINATION":43.0042,"RA_OF_ASC_NODE":303.637,"ARG_OF_PERICENTER":263.0117,"MEAN_ANOMALY":97.0577,"EPHEMERIS_TYPE":0,"CLASSIFICATION_TYPE":"U","NORAD_CAT_ID":55358,"ELEMENT_SET_NO":999,"REV_AT_EPOCH":17161,"BSTAR":-4.1089785e-5,"MEAN_MOTION_DOT":-7.59e-6,"MEAN_MOTION_DDOT":0}]
